MALLIGYONG-1            
1 58400U 23179A   24202.92486541  .00009078  00000+0  40579-3 0  9999
2 58400  97.3998  89.2020 0003637  87.0949 273.0703 15.21539543 36853
